start=new Date('2023-06-13T00:00:00.000Z').valueOf();
sats=[{"ELEMENT_SET_NO":"999","GP_ID":"233804234","MEAN_ELEMENT_THEORY":"SGP4","EPOCH":"2023-06-12T22:14:48.339168","INCLINATION":"70.0015","MEAN_MOTION_DDOT":"0.0000000000000","OBJECT_ID":"2023-010M","OBJECT_TYPE":"PAYLOAD","MEAN_MOTION":"14.98329359","TIME_SYSTEM":"UTC","REF_FRAME":"TEME","PERIOD":"96.107","TLE_LINE1":"1 55280U 23010M   23163.92694837 -.00000360  00000-0 -22400-4 0  9992","SITE":"AFWTR","FILE":"3931605","ECCENTRICITY":"0.00026650","CLASSIFICATION_TYPE":"U","ARG_OF_PERICENTER":"263.4467","MEAN_ANOMALY":"96.6389","RA_OF_ASC_NODE":"47.6396","TLE_LINE2":"2 55280  70.0015  47.6396 0002665 263.4467  96.6389 14.98329359 22874","PERIAPSIS":"570.208","CENTER_NAME":"EARTH","MEAN_MOTION_DOT":"-0.00000360","DECAY_DATE":null,"APOAPSIS":"573.912","COUNTRY_CODE":"US","NORAD_CAT_ID":"55280","SEMIMAJOR_AXIS":"6950.195","OBJECT_NAME":"STARLINK-5331","REV_AT_EPOCH":"2287","EPHEMERIS_TYPE":"0","LAUNCH_DATE":"2023-01-19","RCS_SIZE":"LARGE","BSTAR":"-0.00002240000000"},{"CENTER_NAME":"EARTH","PERIAPSIS":"570.851","MEAN_MOTION_DOT":"-0.00000875","ARG_OF_PERICENTER":"266.5263","RA_OF_ASC_NODE":"47.6876","TLE_LINE2":"2 55281  70.0019  47.6876 0001781 266.5263  93.5692 14.98320000 22875","MEAN_ANOMALY":"93.5692","REV_AT_EPOCH":"2287","OBJECT_NAME":"STARLINK-5298","SEMIMAJOR_AXIS":"6950.224","BSTAR":"-0.00006562000000","EPHEMERIS_TYPE":"0","LAUNCH_DATE":"2023-01-19","RCS_SIZE":"LARGE","NORAD_CAT_ID":"55281","APOAPSIS":"573.327","DECAY_DATE":null,"COUNTRY_CODE":"US","INCLINATION":"70.0019","OBJECT_ID":"2023-010N","MEAN_MOTION_DDOT":"0.0000000000000","MEAN_ELEMENT_THEORY":"SGP4","EPOCH":"2023-06-12T22:32:51.274176","OBJECT_TYPE":"PAYLOAD","ELEMENT_SET_NO":"999","GP_ID":"233803487","TLE_LINE1":"1 55281U 23010N   23163.93948234 -.00000875  00000-0 -65620-4 0  9999","PERIOD":"96.108","ECCENTRICITY":"0.00017810","FILE":"3931605","CLASSIFICATION_TYPE":"U","SITE":"AFWTR","MEAN_MOTION":"14.98320000","REF_FRAME":"TEME","TIME_SYSTEM":"UTC"},{"GP_ID":"233776952","ELEMENT_SET_NO":"999","OBJECT_TYPE":"PAYLOAD","MEAN_ELEMENT_THEORY":"SGP4","EPOCH":"2023-06-12T09:13:42.185856","INCLINATION":"70.0010","OBJECT_ID":"2023-010P","MEAN_MOTION_DDOT":"0.0000000000000","TIME_SYSTEM":"UTC","REF_FRAME":"TEME","MEAN_MOTION":"14.98332396","SITE":"AFWTR","FILE":"3931544","ECCENTRICITY":"0.00031030","CLASSIFICATION_TYPE":"U","TLE_LINE1":"1 55282U 23010P   23163.38451604 -.00000113  00000-0 -17004-5 0  9998","PERIOD":"96.107","MEAN_ANOMALY":"90.8097","RA_OF_ASC_NODE":"48.9572","TLE_LINE2":"2 55282  70.0010  48.9572 0003103 269.2707  90.8097 14.98332396 22495","ARG_OF_PERICENTER":"269.2707","MEAN_MOTION_DOT":"-0.00000113","PERIAPSIS":"569.894","CENTER_NAME":"EARTH","APOAPSIS":"574.207","DECAY_DATE":null,"COUNTRY_CODE":"US","NORAD_CAT_ID":"55282","LAUNCH_DATE":"2023-01-19","EPHEMERIS_TYPE":"0","RCS_SIZE":"LARGE","BSTAR":"-0.00000170040000","SEMIMAJOR_AXIS":"6950.185","REV_AT_EPOCH":"2249","OBJECT_NAME":"STARLINK-5330"},{"REV_AT_EPOCH":"2287","OBJECT_NAME":"STARLINK-5317","SEMIMAJOR_AXIS":"6950.196","BSTAR":"0.00002556700000","RCS_SIZE":"LARGE","LAUNCH_DATE":"2023-01-19","EPHEMERIS_TYPE":"0","NORAD_CAT_ID":"55283","COUNTRY_CODE":"US","APOAPSIS":"574.039","DECAY_DATE":null,"CENTER_NAME":"EARTH","PERIAPSIS":"570.082","MEAN_MOTION_DOT":"0.00000212","ARG_OF_PERICENTER":"269.0104","TLE_LINE2":"2 55283  70.0007  47.6715 0002847 269.0104  91.0729 14.98329151 22872","RA_OF_ASC_NODE":"47.6715","MEAN_ANOMALY":"91.0729","PERIOD":"96.107","TLE_LINE1":"1 55283U 23010Q   23163.93529552  .00000212  00000-0  25567-4 0  9998","CLASSIFICATION_TYPE":"U","FILE":"3931605","ECCENTRICITY":"0.00028470","SITE":"AFWTR","MEAN_MOTION":"14.98329151","REF_FRAME":"TEME","TIME_SYSTEM":"UTC","MEAN_MOTION_DDOT":"0.0000000000000","OBJECT_ID":"2023-010Q","INCLINATION":"70.0007","EPOCH":"2023-06-12T22:26:49.532928","MEAN_ELEMENT_THEORY":"SGP4","OBJECT_TYPE":"PAYLOAD","ELEMENT_SET_NO":"999","GP_ID":"233804489"},{"BSTAR":"-0.00007054000000","RCS_SIZE":"LARGE","LAUNCH_DATE":"2023-01-19","EPHEMERIS_TYPE":"0","REV_AT_EPOCH":"2279","OBJECT_NAME":"STARLINK-5337","SEMIMAJOR_AXIS":"6950.171","NORAD_CAT_ID":"55284","COUNTRY_CODE":"US","APOAPSIS":"574.276","DECAY_DATE":null,"MEAN_MOTION_DOT":"-0.00000935","CENTER_NAME":"EARTH","PERIAPSIS":"569.797","TLE_LINE2":"2 55284  70.0008  48.9431 0003222 269.5886  90.4904 14.98336989 22799","RA_OF_ASC_NODE":"48.9431","MEAN_ANOMALY":"90.4904","ARG_OF_PERICENTER":"269.5886","CLASSIFICATION_TYPE":"U","FILE":"3931287","ECCENTRICITY":"0.00032220","SITE":"AFWTR","TLE_LINE1":"1 55284U 23010R   23163.38034101 -.00000935  00000-0 -70540-4 0  9994","PERIOD":"96.107","REF_FRAME":"TEME","TIME_SYSTEM":"UTC","MEAN_MOTION":"14.98336989","OBJECT_TYPE":"PAYLOAD","OBJECT_ID":"2023-010R","MEAN_MOTION_DDOT":"0.0000000000000","INCLINATION":"70.0008","EPOCH":"2023-06-12T09:07:41.463264","MEAN_ELEMENT_THEORY":"SGP4","GP_ID":"233768688","ELEMENT_SET_NO":"999"},{"PERIOD":"91.725","TLE_LINE1":"1 55285U 23010S   23163.34891181 -.00001054  00000-0 -69967-5 0  9995","SITE":"AFWTR","FILE":"3931287","ECCENTRICITY":"0.00033540","CLASSIFICATION_TYPE":"U","MEAN_MOTION":"15.69914763","TIME_SYSTEM":"UTC","REF_FRAME":"TEME","MEAN_ELEMENT_THEORY":"SGP4","EPOCH":"2023-06-12T08:22:25.980384","INCLINATION":"69.9964","OBJECT_ID":"2023-010S","MEAN_MOTION_DDOT":"0.0000000000000","OBJECT_TYPE":"PAYLOAD","ELEMENT_SET_NO":"999","GP_ID":"233769939","SEMIMAJOR_AXIS":"6737.278","OBJECT_NAME":"STARLINK-5332","REV_AT_EPOCH":"2427","LAUNCH_DATE":"2023-01-19","EPHEMERIS_TYPE":"0","RCS_SIZE":"LARGE","BSTAR":"-0.00000699670000","APOAPSIS":"361.403","DECAY_DATE":null,"COUNTRY_CODE":"US","NORAD_CAT_ID":"55285","PERIAPSIS":"356.883","CENTER_NAME":"EARTH","MEAN_MOTION_DOT":"-0.00001054","ARG_OF_PERICENTER":"268.4844","MEAN_ANOMALY":"91.5967","RA_OF_ASC_NODE":"24.4343","TLE_LINE2":"2 55285  69.9964  24.4343 0003354 268.4844  91.5967 15.69914763 24274"},{"SITE":"AFWTR","CLASSIFICATION_TYPE":"U","FILE":"3931605","ECCENTRICITY":"0.00030740","TLE_LINE1":"1 55286U 23010T   23164.00001157 -.00880297  00000-0 -71540-1 0  9996","PERIOD":"95.846","TIME_SYSTEM":"UTC","REF_FRAME":"TEME","MEAN_MOTION":"15.02403870","OBJECT_TYPE":"PAYLOAD","EPOCH":"2023-06-13T00:00:00.999648","MEAN_ELEMENT_THEORY":"SGP4","OBJECT_ID":"2023-010T","MEAN_MOTION_DDOT":"0.0000000000000","INCLINATION":"70.0008","GP_ID":"233803238","ELEMENT_SET_NO":"999","RCS_SIZE":"LARGE","EPHEMERIS_TYPE":"0","LAUNCH_DATE":"2023-01-19","BSTAR":"-0.07154000000000","SEMIMAJOR_AXIS":"6937.623","REV_AT_EPOCH":"130","OBJECT_NAME":"STARLINK-5338","COUNTRY_CODE":"US","DECAY_DATE":null,"APOAPSIS":"561.621","NORAD_CAT_ID":"55286","MEAN_MOTION_DOT":"-0.00880297","PERIAPSIS":"557.356","CENTER_NAME":"EARTH","MEAN_ANOMALY":"7.7808","TLE_LINE2":"2 55286  70.0008  27.7153 0003074 272.2374   7.7808 15.02403870  1303","RA_OF_ASC_NODE":"27.7153","ARG_OF_PERICENTER":"272.2374"},{"ELEMENT_SET_NO":"999","GP_ID":"233768938","MEAN_ELEMENT_THEORY":"SGP4","EPOCH":"2023-06-12T08:11:34.396512","INCLINATION":"70.0002","OBJECT_ID":"2023-010U","MEAN_MOTION_DDOT":"0.0000000000000","OBJECT_TYPE":"PAYLOAD","MEAN_MOTION":"15.69921082","TIME_SYSTEM":"UTC","REF_FRAME":"TEME","PERIOD":"91.724","TLE_LINE1":"1 55287U 23010U   23163.34137033  .00000374  00000-0  48773-5 0  9990","SITE":"AFWTR","FILE":"3931287","ECCENTRICITY":"0.00031930","CLASSIFICATION_TYPE":"U","ARG_OF_PERICENTER":"265.6886","MEAN_ANOMALY":"94.3945","RA_OF_ASC_NODE":"22.6978","TLE_LINE2":"2 55287  70.0002  22.6978 0003193 265.6886  94.3945 15.69921082 23438","PERIAPSIS":"356.974","CENTER_NAME":"EARTH","MEAN_MOTION_DOT":"0.00000374","APOAPSIS":"361.276","DECAY_DATE":null,"COUNTRY_CODE":"US","NORAD_CAT_ID":"55287","SEMIMAJOR_AXIS":"6737.260","OBJECT_NAME":"STARLINK-5341","REV_AT_EPOCH":"2343","LAUNCH_DATE":"2023-01-19","EPHEMERIS_TYPE":"0","RCS_SIZE":"LARGE","BSTAR":"0.00000487730000"},{"COUNTRY_CODE":"US","DECAY_DATE":null,"APOAPSIS":"557.402","NORAD_CAT_ID":"55288","SEMIMAJOR_AXIS":"6933.407","OBJECT_NAME":"STARLINK-5311","REV_AT_EPOCH":"130","RCS_SIZE":"LARGE","EPHEMERIS_TYPE":"0","LAUNCH_DATE":"2023-01-19","BSTAR":"-0.06950900000000","ARG_OF_PERICENTER":"277.1793","MEAN_ANOMALY":"128.8759","TLE_LINE2":"2 55288  70.0021  27.5763 0003072 277.1793 128.8759 15.03774563  1303","RA_OF_ASC_NODE":"27.5763","PERIAPSIS":"553.142","CENTER_NAME":"EARTH","MEAN_MOTION_DOT":"-0.00886638","MEAN_MOTION":"15.03774563","TIME_SYSTEM":"UTC","REF_FRAME":"TEME","PERIOD":"95.759","TLE_LINE1":"1 55288U 23010V   23164.00001157 -.00886638  00000-0 -69509-1 0  9995","SITE":"AFWTR","CLASSIFICATION_TYPE":"U","ECCENTRICITY":"0.00030720","FILE":"3931605","ELEMENT_SET_NO":"999","GP_ID":"233804235","EPOCH":"2023-06-13T00:00:00.999648","MEAN_ELEMENT_THEORY":"SGP4","OBJECT_ID":"2023-010V","MEAN_MOTION_DDOT":"0.0000000000000","INCLINATION":"70.0021","OBJECT_TYPE":"PAYLOAD"},{"MEAN_MOTION_DOT":"-0.00881529","PERIAPSIS":"556.667","CENTER_NAME":"EARTH","MEAN_ANOMALY":"29.1895","RA_OF_ASC_NODE":"27.6950","TLE_LINE2":"2 55289  70.0011  27.6950 0003079 271.5476  29.1895 15.02626565  1306","ARG_OF_PERICENTER":"271.5476","LAUNCH_DATE":"2023-01-19","EPHEMERIS_TYPE":"0","RCS_SIZE":"LARGE","BSTAR":"-0.07122500000000","SEMIMAJOR_AXIS":"6936.938","OBJECT_NAME":"STARLINK-5320","REV_AT_EPOCH":"130","DECAY_DATE":null,"APOAPSIS":"560.939","COUNTRY_CODE":"US","NORAD_CAT_ID":"55289","OBJECT_TYPE":"PAYLOAD","MEAN_ELEMENT_THEORY":"SGP4","EPOCH":"2023-06-13T00:00:00.999648","INCLINATION":"70.0011","OBJECT_ID":"2023-010W","MEAN_MOTION_DDOT":"0.0000000000000","GP_ID":"233803488","ELEMENT_SET_NO":"999","SITE":"AFWTR","FILE":"3931605","ECCENTRICITY":"0.00030790","CLASSIFICATION_TYPE":"U","TLE_LINE1":"1 55289U 23010W   23164.00001157 -.00881529  00000-0 -71225-1 0  9998","PERIOD":"95.832","TIME_SYSTEM":"UTC","REF_FRAME":"TEME","MEAN_MOTION":"15.02626565"}];
